{
  "type": "FeatureCollection",
  "features": [
    {
      "type": "Feature",
      "properties": {
        "norad_id": 40938,
        "name": "BEIDOU-3S IGSO-2S (C56)",
        "group": "beidou",
        "lat": 47.87155997077486,
        "lon": -28.511943939900885,
        "alt_km": 35875.06336248958,
        "timestamp": "2025-12-13T10:41:26.030992+00:00",
        "meta_object_name": "BEIDOU-3S IGSO-2S (C56)",
        "meta_object_id": "2015-053A",
        "meta_epoch": "2025-12-12T17:40:22.230624",
        "meta_mean_motion": 1.00269795,
        "meta_eccentricity": 0.00608697,
        "meta_inclination": 49.5105,
        "meta_ra_of_asc_node": 261.0048,
        "meta_arg_of_pericenter": 188.8005,
        "meta_mean_anomaly": 352.9764,
        "meta_ephemeris_type": 0,
        "meta_classification_type": "U",
        "meta_norad_cat_id": 40938,
        "meta_element_set_no": 999,
        "meta_rev_at_epoch": 3748,
        "meta_bstar": 0,
        "meta_mean_motion_dot": -1.58e-06,
        "meta_mean_motion_ddot": 0,
        "tle_line1": "1 40938U 15053A   25346.73636841 -.00000158  00000+0  00000+0 0  9999",
        "tle_line2": "2 40938  49.5105 261.0048 0060869 188.8005 352.9764  1.00269795 37487"
      },
      "geometry": {
        "type": "Point",
        "coordinates": [
          -28.511943939900885,
          47.87155997077486
        ]
      }
    },
    {
      "type": "Feature",
      "properties": {
        "norad_id": 41434,
        "name": "BEIDOU-2 IGSO-6 (C13)",
        "group": "beidou",
        "lat": -50.837998597074474,
        "lon": -5.262984034652268,
        "alt_km": 35682.34737151808,
        "timestamp": "2025-12-13T10:41:26.031004+00:00",
        "meta_object_name": "BEIDOU-2 IGSO-6 (C13)",
        "meta_object_id": "2016-021A",
        "meta_epoch": "2025-12-11T15:29:12.615360",
        "meta_mean_motion": 1.00293077,
        "meta_eccentricity": 0.00608616,
        "meta_inclination": 59.9644,
        "meta_ra_of_asc_node": 39.9082,
        "meta_arg_of_pericenter": 229.9753,
        "meta_mean_anomaly": 135.9177,
        "meta_ephemeris_type": 0,
        "meta_classification_type": "U",
        "meta_norad_cat_id": 41434,
        "meta_element_set_no": 999,
        "meta_rev_at_epoch": 3560,
        "meta_bstar": 0,
        "meta_mean_motion_dot": -1.62e-06,
        "meta_mean_motion_ddot": 0,
        "tle_line1": "1 41434U 16021A   25345.64528490 -.00000162  00000+0  00000+0 0  9991",
        "tle_line2": "2 41434  59.9644  39.9082 0060861 229.9753 135.9177  1.00293077 35600"
      },
      "geometry": {
        "type": "Point",
        "coordinates": [
          -5.262984034652268,
          -50.837998597074474
        ]
      }
    },
    {
      "type": "Feature",
      "properties": {
        "norad_id": 41586,
        "name": "BEIDOU-2 G7 (C03)",
        "group": "beidou",
        "lat": -1.690983250823247,
        "lon": -6.901249522544637,
        "alt_km": 35782.247025429286,
        "timestamp": "2025-12-13T10:41:26.031017+00:00",
        "meta_object_name": "BEIDOU-2 G7 (C03)",
        "meta_object_id": "2016-037A",
        "meta_epoch": "2025-12-13T00:54:38.886048",
        "meta_mean_motion": 1.0026712,
        "meta_eccentricity": 0.00045311,
        "meta_inclination": 1.7581,
        "meta_ra_of_asc_node": 67.7678,
        "meta_arg_of_pericenter": 358.8188,
        "meta_mean_anomaly": 139.4696,
        "meta_ephemeris_type": 0,
        "meta_classification_type": "U",
        "meta_norad_cat_id": 41586,
        "meta_element_set_no": 999,
        "meta_rev_at_epoch": 502,
        "meta_bstar": 0,
        "meta_mean_motion_dot": -3.4e-06,
        "meta_mean_motion_ddot": 0,
        "tle_line1": "1 41586U 16037A   25347.03795007 -.00000340  00000+0  00000+0 0  9999",
        "tle_line2": "2 41586   1.7581  67.7678 0004531 358.8188 139.4696  1.00267120  5027"
      },
      "geometry": {
        "type": "Point",
        "coordinates": [
          -6.901249522544637,
          -1.690983250823247
        ]
      }
    },
    {
      "type": "Feature",
      "properties": {
        "norad_id": 43001,
        "name": "BEIDOU-3 M1 (C19)",
        "group": "beidou",
        "lat": 49.827618019201594,
        "lon": 120.71650893934672,
        "alt_km": 21535.727659172037,
        "timestamp": "2025-12-13T10:41:26.031028+00:00",
        "meta_object_name": "BEIDOU-3 M1 (C19)",
        "meta_object_id": "2017-069A",
        "meta_epoch": "2025-12-10T02:59:44.237184",
        "meta_mean_motion": 1.86231011,
        "meta_eccentricity": 0.0009053,
        "meta_inclination": 56.5252,
        "meta_ra_of_asc_node": 69.32,
        "meta_arg_of_pericenter": 303.7778,
        "meta_mean_anomaly": 56.1585,
        "meta_ephemeris_type": 0,
        "meta_classification_type": "U",
        "meta_norad_cat_id": 43001,
        "meta_element_set_no": 999,
        "meta_rev_at_epoch": 5508,
        "meta_bstar": 0,
        "meta_mean_motion_dot": -5.2e-07,
        "meta_mean_motion_ddot": 0,
        "tle_line1": "1 43001U 17069A   25344.12481756 -.00000052  00000+0  00000+0 0  9999",
        "tle_line2": "2 43001  56.5252  69.3200 0009053 303.7778  56.1585  1.86231011 55088"
      },
      "geometry": {
        "type": "Point",
        "coordinates": [
          120.71650893934672,
          49.827618019201594
        ]
      }
    },
    {
      "type": "Feature",
      "properties": {
        "norad_id": 43002,
        "name": "BEIDOU-3 M2 (C20)",
        "group": "beidou",
        "lat": 52.64930832520679,
        "lon": -170.71401511834446,
        "alt_km": 21534.762154991156,
        "timestamp": "2025-12-13T10:41:26.031040+00:00",
        "meta_object_name": "BEIDOU-3 M2 (C20)",
        "meta_object_id": "2017-069B",
        "meta_epoch": "2025-12-12T17:57:03.193632",
        "meta_mean_motion": 1.86230645,
        "meta_eccentricity": 0.00063664,
        "meta_inclination": 56.5266,
        "meta_ra_of_asc_node": 69.2696,
        "meta_arg_of_pericenter": 331.453,
        "meta_mean_anomaly": 28.5312,
        "meta_ephemeris_type": 0,
        "meta_classification_type": "U",
        "meta_norad_cat_id": 43002,
        "meta_element_set_no": 999,
        "meta_rev_at_epoch": 5512,
        "meta_bstar": 0,
        "meta_mean_motion_dot": -7.4e-07,
        "meta_mean_motion_ddot": 0,
        "tle_line1": "1 43002U 17069B   25346.74795363 -.00000074  00000+0  00000+0 0  9996",
        "tle_line2": "2 43002  56.5266  69.2696 0006366 331.4530  28.5312  1.86230645 55128"
      },
      "geometry": {
        "type": "Point",
        "coordinates": [
          -170.71401511834446,
          52.64930832520679
        ]
      }
    },
    {
      "type": "Feature",
      "properties": {
        "norad_id": 43107,
        "name": "BEIDOU-3 M7 (C27)",
        "group": "beidou",
        "lat": -53.30361934260268,
        "lon": -124.41412670741745,
        "alt_km": 21540.050516470517,
        "timestamp": "2025-12-13T10:41:26.031051+00:00",
        "meta_object_name": "BEIDOU-3 M7 (C27)",
        "meta_object_id": "2018-003A",
        "meta_epoch": "2025-12-10T08:14:11.609952",
        "meta_mean_motion": 1.86232173,
        "meta_eccentricity": 0.00026083,
        "meta_inclination": 54.4988,
        "meta_ra_of_asc_node": 308.8983,
        "meta_arg_of_pericenter": 70.7786,
        "meta_mean_anomaly": 289.2405,
        "meta_ephemeris_type": 0,
        "meta_classification_type": "U",
        "meta_norad_cat_id": 43107,
        "meta_element_set_no": 999,
        "meta_rev_at_epoch": 5383,
        "meta_bstar": 0,
        "meta_mean_motion_dot": -8.2e-07,
        "meta_mean_motion_ddot": 0,
        "tle_line1": "1 43107U 18003A   25344.34318993 -.00000082  00000+0  00000+0 0  9994",
        "tle_line2": "2 43107  54.4988 308.8983 0002608  70.7786 289.2405  1.86232173 53837"
      },
      "geometry": {
        "type": "Point",
        "coordinates": [
          -124.41412670741745,
          -53.30361934260268
        ]
      }
    },
    {
      "type": "Feature",
      "properties": {
        "norad_id": 43108,
        "name": "BEIDOU-3 M8 (C28)",
        "group": "beidou",
        "lat": -33.8322343348323,
        "lon": -79.82040204452423,
        "alt_km": 21522.408789085286,
        "timestamp": "2025-12-13T10:41:26.031062+00:00",
        "meta_object_name": "BEIDOU-3 M8 (C28)",
        "meta_object_id": "2018-003B",
        "meta_epoch": "2025-12-11T21:34:27.940800",
        "meta_mean_motion": 1.86230629,
        "meta_eccentricity": 0.00047751,
        "meta_inclination": 54.4899,
        "meta_ra_of_asc_node": 308.8263,
        "meta_arg_of_pericenter": 274.4182,
        "meta_mean_anomaly": 85.5183,
        "meta_ephemeris_type": 0,
        "meta_classification_type": "U",
        "meta_norad_cat_id": 43108,
        "meta_element_set_no": 999,
        "meta_rev_at_epoch": 5387,
        "meta_bstar": 0,
        "meta_mean_motion_dot": -9e-07,
        "meta_mean_motion_ddot": 0,
        "tle_line1": "1 43108U 18003B   25345.89893450 -.00000090  00000+0  00000+0 0  9991",
        "tle_line2": "2 43108  54.4899 308.8263 0004775 274.4182  85.5183  1.86230629 53878"
      },
      "geometry": {
        "type": "Point",
        "coordinates": [
          -79.82040204452423,
          -33.8322343348323
        ]
      }
    }
  ]
}